{"type": "FeatureCollection", "features": [ {"type": "Feature", "properties": {"norad_id": 66385, "name": "STARLINK-35659", "group": "last-30-days", "lat": -32.11728724825901, "lon": 157.60794022229828, "alt_km": 451.8991400635423, "timestamp": "2025-12-03T04:52:28.419404+00:00", "meta": {"OBJECT_NAME": "STARLINK-35659", "OBJECT_ID": "2025-257F", "EPOCH": "2025-12-02T20:00:03.000384", "MEAN_MOTION": 15.3968554, "ECCENTRICITY": 0.000146, "INCLINATION": 53.1591, "RA_OF_ASC_NODE": 311.2757, "ARG_OF_PERICENTER": 96.4721, "MEAN_ANOMALY": 234.5814, "EPHEMERIS_TYPE": 0, "CLASSIFICATION_TYPE": "U", "NORAD_CAT_ID": 66385, "ELEMENT_SET_NO": 999, "REV_AT_EPOCH": 490, "BSTAR": -0.0036922, "MEAN_MOTION_DOT": -0.00145616, "MEAN_MOTION_DDOT": 0}, "tle": {"line1": "1 66385U 25257F   25336.83336806 -.00145616  00000+0 -36922-2 0  9993", "line2": "2 66385  53.1591 311.2757 0001460  96.4721 234.5814 15.39685540  4906"}}, "geometry": {"type": "Point", "coordinates": [157.60794022229828, -32.11728724825901]}}, {"type": "Feature", "properties": {"norad_id": 66386, "name": "STARLINK-35651", "group": "last-30-days", "lat": -52.64024538967825, "lon": -151.42481070713194, "alt_km": 439.83347613387014, "timestamp": "2025-12-03T04:52:28.419414+00:00", "meta": {"OBJECT_NAME": "STARLINK-35651", "OBJECT_ID": "2025-257G", "EPOCH": "2025-12-02T20:00:03.000384", "MEAN_MOTION": 15.45698106, "ECCENTRICITY": 0.0001184, "INCLINATION": 53.1593, "RA_OF_ASC_NODE": 311.2057, "ARG_OF_PERICENTER": 108.4101, "MEAN_ANOMALY": 257.5049, "EPHEMERIS_TYPE": 0, "CLASSIFICATION_TYPE": "U", "NORAD_CAT_ID": 66386, "ELEMENT_SET_NO": 999, "REV_AT_EPOCH": 490, "BSTAR": -0.04598, "MEAN_MOTION_DOT": -0.02011281, "MEAN_MOTION_DDOT": 0}, "tle": {"line1": "1 66386U 25257G   25336.83336806 -.02011281  00000+0 -45980-1 0  9999", "line2": "2 66386  53.1593 311.2057 0001184 108.4101 257.5049 15.45698106  4905"}}, "geometry": {"type": "Point", "coordinates": [-151.42481070713194, -52.64024538967825]}}, {"type": "Feature", "properties": {"norad_id": 66387, "name": "STARLINK-35661", "group": "last-30-days", "lat": -52.88276122428386, "lon": -148.36834264674386, "alt_km": 439.7667571430793, "timestamp": "2025-12-03T04:52:28.419424+00:00", "meta": {"OBJECT_NAME": "STARLINK-35661", "OBJECT_ID": "2025-257H", "EPOCH": "2025-12-02T20:00:03.000384", "MEAN_MOTION": 15.45684688, "ECCENTRICITY": 0.000101, "INCLINATION": 53.1592, "RA_OF_ASC_NODE": 311.2023, "ARG_OF_PERICENTER": 110.5007, "MEAN_ANOMALY": 257.303, "EPHEMERIS_TYPE": 0, "CLASSIFICATION_TYPE": "U", "NORAD_CAT_ID": 66387, "ELEMENT_SET_NO": 999, "REV_AT_EPOCH": 490, "BSTAR": -0.045961, "MEAN_MOTION_DOT": -0.02009607, "MEAN_MOTION_DDOT": 0}, "tle": {"line1": "1 66387U 25257H   25336.83336806 -.02009607  00000+0 -45961-1 0  9998", "line2": "2 66387  53.1592 311.2023 0001010 110.5007 257.3030 15.45684688  4903"}}, "geometry": {"type": "Point", "coordinates": [-148.36834264674386, -52.88276122428386]}}, {"type": "Feature", "properties": {"norad_id": 66388, "name": "STARLINK-35647", "group": "last-30-days", "lat": -52.73316372621048, "lon": -130.76262107119035, "alt_km": 431.33161922394356, "timestamp": "2025-12-03T04:52:28.419434+00:00", "meta": {"OBJECT_NAME": "STARLINK-35647", "OBJECT_ID": "2025-257J", "EPOCH": "2025-12-02T20:00:03.000384", "MEAN_MOTION": 15.4855099, "ECCENTRICITY": 8.09e-05, "INCLINATION": 53.1589, "RA_OF_ASC_NODE": 311.1887, "ARG_OF_PERICENTER": 107.9431, "MEAN_ANOMALY": 266.7093, "EPHEMERIS_TYPE": 0, "CLASSIFICATION_TYPE": "U", "NORAD_CAT_ID": 66388, "ELEMENT_SET_NO": 999, "REV_AT_EPOCH": 490, "BSTAR": -0.042195, "MEAN_MOTION_DOT": -0.0203612, "MEAN_MOTION_DDOT": 0}, "tle": {"line1": "1 66388U 25257J   25336.83336806 -.02036120  00000+0 -42195-1 0  9995", "line2": "2 66388  53.1589 311.1887 0000809 107.9431 266.7093 15.48550990  4907"}}, "geometry": {"type": "Point", "coordinates": [-130.76262107119035, -52.73316372621048]}}, {"type": "Feature", "properties": {"norad_id": 66389, "name": "STARLINK-35694", "group": "last-30-days", "lat": -51.935333833853605, "lon": -123.80711713381686, "alt_km": 424.6162429033475, "timestamp": "2025-12-03T04:52:28.419445+00:00", "meta": {"OBJECT_NAME": "STARLINK-35694", "OBJECT_ID": "2025-257K", "EPOCH": "2025-12-02T20:00:03.000384", "MEAN_MOTION": 15.49231507, "ECCENTRICITY": 0.0001581, "INCLINATION": 53.1583, "RA_OF_ASC_NODE": 311.1829, "ARG_OF_PERICENTER": 85.4362, "MEAN_ANOMALY": 291.5057, "EPHEMERIS_TYPE": 0, "CLASSIFICATION_TYPE": "U", "NORAD_CAT_ID": 66389, "ELEMENT_SET_NO": 999, "REV_AT_EPOCH": 490, "BSTAR": 0.0015443, "MEAN_MOTION_DOT": 0.00086155, "MEAN_MOTION_DDOT": 0}, "tle": {"line1": "1 66389U 25257K   25336.83336806  .00086155  00000+0  15443-2 0  9992", "line2": "2 66389  53.1583 311.1829 0001581  85.4362 291.5057 15.49231507  4906"}}, "geometry": {"type": "Point", "coordinates": [-123.80711713381686, -51.935333833853605]}}, {"type": "Feature", "properties": {"norad_id": 66390, "name": "STARLINK-35665", "group": "last-30-days", "lat": -34.7220951362958, "lon": -81.96141578102502, "alt_km": 423.628662732287, "timestamp": "2025-12-03T04:52:28.419455+00:00", "meta": {"OBJECT_NAME": "STARLINK-35665", "OBJECT_ID": "2025-257L", "EPOCH": "2025-12-02T20:00:03.000384", "MEAN_MOTION": 15.49299848, "ECCENTRICITY": 0.0001263, "INCLINATION": 53.1584, "RA_OF_ASC_NODE": 311.1117, "ARG_OF_PERICENTER": 97.2634, "MEAN_ANOMALY": 314.0565, "EPHEMERIS_TYPE": 0, "CLASSIFICATION_TYPE": "U", "NORAD_CAT_ID": 66390, "ELEMENT_SET_NO": 999, "REV_AT_EPOCH": 500, "BSTAR": -0.00036122, "MEAN_MOTION_DOT": -0.00020479, "MEAN_MOTION_DDOT": 0}, "tle": {"line1": "1 66390U 25257L   25336.83336806 -.00020479  00000+0 -36122-3 0  9991", "line2": "2 66390  53.1584 311.1117 0001263  97.2634 314.0565 15.49299848  5008"}}, "geometry": {"type": "Point", "coordinates": [-81.96141578102502, -34.7220951362958]}}, {"type": "Feature", "properties": {"norad_id": 66391, "name": "STARLINK-35656", "group": "last-30-days", "lat": -29.059239929341526, "lon": -75.30346265223464, "alt_km": 451.44579192738456, "timestamp": "2025-12-03T04:52:28.419467+00:00", "meta": {"OBJECT_NAME": "STARLINK-35656", "OBJECT_ID": "2025-257M", "EPOCH": "2025-12-02T20:00:03.000384", "MEAN_MOTION": 15.39546722, "ECCENTRICITY": 0.0001438, "INCLINATION": 53.159, "RA_OF_ASC_NODE": 311.0595, "ARG_OF_PERICENTER": 76.9492, "MEAN_ANOMALY": 355.3448, "EPHEMERIS_TYPE": 0, "CLASSIFICATION_TYPE": "U", "NORAD_CAT_ID": 66391, "ELEMENT_SET_NO": 999, "REV_AT_EPOCH": 500, "BSTAR": 0.0022159, "MEAN_MOTION_DOT": 0.0008906, "MEAN_MOTION_DDOT": 0}, "tle": {"line1": "1 66391U 25257M   25336.83336806  .00089060  00000+0  22159-2 0  9995", "line2": "2 66391  53.1590 311.0595 0001438  76.9492 355.3448 15.39546722  5008"}}, "geometry": {"type": "Point", "coordinates": [-75.30346265223464, -29.059239929341526]}}, {"type": "Feature", "properties": {"norad_id": 66392, "name": "STARLINK-35671", "group": "last-30-days", "lat": -51.85823589666962, "lon": -123.2860729798025, "alt_km": 432.8501210846189, "timestamp": "2025-12-03T04:52:28.419484+00:00", "meta": {"OBJECT_NAME": "STARLINK-35671", "OBJECT_ID": "2025-257N", "EPOCH": "2025-12-02T20:00:03.000384", "MEAN_MOTION": 15.48040971, "ECCENTRICITY": 8.68e-05, "INCLINATION": 53.1587, "RA_OF_ASC_NODE": 311.1773, "ARG_OF_PERICENTER": 107.1397, "MEAN_ANOMALY": 272.8623, "EPHEMERIS_TYPE": 0, "CLASSIFICATION_TYPE": "U", "NORAD_CAT_ID": 66392, "ELEMENT_SET_NO": 999, "REV_AT_EPOCH": 490, "BSTAR": -0.042977, "MEAN_MOTION_DOT": -0.02036803, "MEAN_MOTION_DDOT": 0}, "tle": {"line1": "1 66392U 25257N   25336.83336806 -.02036803  00000+0 -42977-1 0  9996", "line2": "2 66392  53.1587 311.1773 0000868 107.1397 272.8623 15.48040971  4902"}}, "geometry": {"type": "Point", "coordinates": [-123.2860729798025, -51.85823589666962]}}, {"type": "Feature", "properties": {"norad_id": 66393, "name": "STARLINK-35652", "group": "last-30-days", "lat": -51.47949602119566, "lon": -120.96018055660326, "alt_km": 424.60288539986595, "timestamp": "2025-12-03T04:52:28.419494+00:00", "meta": {"OBJECT_NAME": "STARLINK-35652", "OBJECT_ID": "2025-257P", "EPOCH": "2025-12-02T20:00:03.000384", "MEAN_MOTION": 15.49293163, "ECCENTRICITY": 0.0001508, "INCLINATION": 53.1584, "RA_OF_ASC_NODE": 311.1798, "ARG_OF_PERICENTER": 107.8182, "MEAN_ANOMALY": 270.9074, "EPHEMERIS_TYPE": 0, "CLASSIFICATION_TYPE": "U", "NORAD_CAT_ID": 66393, "ELEMENT_SET_NO": 999, "REV_AT_EPOCH": 490, "BSTAR": -0.00010022, "MEAN_MOTION_DOT": -6.015e-05, "MEAN_MOTION_DDOT": 0}, "tle": {"line1": "1 66393U 25257P   25336.83336806 -.00006015  00000+0 -10022-3 0  9995", "line2": "2 66393  53.1584 311.1798 0001508 107.8182 270.9074 15.49293163  4901"}}, "geometry": {"type": "Point", "coordinates": [-120.96018055660326, -51.47949602119566]}}, {"type": "Feature", "properties": {"norad_id": 66394, "name": "STARLINK-35672", "group": "last-30-days", "lat": -50.306596614634145, "lon": -115.19300132986012, "alt_km": 424.50535405312166, "timestamp": "2025-12-03T04:52:28.419504+00:00", "meta": {"OBJECT_NAME": "STARLINK-35672", "OBJECT_ID": "2025-257Q", "EPOCH": "2025-12-02T20:00:03.000384", "MEAN_MOTION": 15.4929453, "ECCENTRICITY": 0.0001411, "INCLINATION": 53.1585, "RA_OF_ASC_NODE": 311.1712, "ARG_OF_PERICENTER": 98.2892, "MEAN_ANOMALY": 284.2723, "EPHEMERIS_TYPE": 0, "CLASSIFICATION_TYPE": "U", "NORAD_CAT_ID": 66394, "ELEMENT_SET_NO": 999, "REV_AT_EPOCH": 490, "BSTAR": -0.00012365, "MEAN_MOTION_DOT": -7.316e-05, "MEAN_MOTION_DDOT": 0}, "tle": {"line1": "1 66394U 25257Q   25336.83336806 -.00007316  00000+0 -12365-3 0  9993", "line2": "2 66394  53.1585 311.1712 0001411  98.2892 284.2723 15.49294530  4901"}}, "geometry": {"type": "Point", "coordinates": [-115.19300132986012, -50.306596614634145]}}]}